H1 CPF  1  DGF 2022 04 16 11  6061 larets     NONE      
H2   304206 5557    27944 2022 04 16 00 00 00 2022 04 23 00 00 00    30 1 1  0 0 0
H5  0.0650
H9
10 0 59687  36000.000000  0      -1057721.443        160777.172       6962730.863
10 0 59687  36030.000000  0       -949124.312        361011.441       6970749.212
10 0 59687  36060.000000  0       -838688.515        560399.705       6971632.288
10 0 59687  36090.000000  0       -726530.395        758731.540       6965378.900
10 0 59687  36120.000000  0       -612768.967        955798.094       6951995.139
10 0 59687  36150.000000  0       -497525.796       1151392.305       6931494.371
10 0 59687  36180.000000  0       -380924.864       1345309.120       6903897.235
10 0 59687  36210.000000  0       -263092.435       1537345.722       6869231.616
10 0 59687  36240.000000  0       -144156.920       1727301.736       6827532.619
10 0 59687  36270.000000  0        -24248.732       1914979.446       6778842.539
10 0 59687  36300.000000  0         96499.857       2100184.003       6723210.814
10 0 59687  36330.000000  0        217954.859       2282723.622       6660693.979
10 0 59687  36360.000000  0        339980.722       2462409.790       6591355.615
10 0 59687  36390.000000  0        462440.479       2639057.463       6515266.288
10 0 59687  36420.000000  0        585195.905       2812485.261       6432503.479
10 0 59687  36450.000000  0        708107.672       2982515.657       6343151.515
10 0 59687  36480.000000  0        831035.508       3148975.167       6247301.479
10 0 59687  36510.000000  0        953838.357       3311694.531       6145051.125
10 0 59687  36540.000000  0       1076374.544       3470508.893       6036504.781
10 0 59687  36570.000000  0       1198501.935       3625257.966       5921773.244
10 0 59687  36600.000000  0       1320078.105       3775786.209       5800973.674
10 0 59687  36630.000000  0       1440960.507       3921942.982       5674229.478
10 0 59687  36660.000000  0       1561006.635       4063582.708       5541670.185
10 0 59687  36690.000000  0       1680074.201       4200565.028       5403431.321
10 0 59687  36720.000000  0       1798021.303       4332754.943       5259654.269
10 0 59687  36750.000000  0       1914706.595       4460022.956       5110486.125
10 0 59687  36780.000000  0       2029989.462       4582245.207       4956079.547
10 0 59687  36810.000000  0       2143730.183       4699303.594       4796592.599
10 0 59687  36840.000000  0       2255790.109       4811085.894       4632188.591
10 0 59687  36870.000000  0       2366031.826       4917485.875       4463035.914
10 0 59687  36900.000000  0       2474319.330       5018403.404       4289307.868
10 0 59687  36930.000000  0       2580518.190       5113744.547       4111182.483
10 0 59687  36960.000000  0       2684495.722       5203421.658       3928842.342
10 0 59687  36990.000000  0       2786121.147       5287353.478       3742474.397
10 0 59687  37020.000000  0       2885265.772       5365465.214       3552269.772
10 0 59687  37050.000000  0       2981803.145       5437688.617       3358423.561
10 0 59687  37080.000000  0       3075609.224       5503962.048       3161134.619
10 0 59687  37110.000000  0       3166562.535       5564230.530       2960605.349
10 0 59687  37140.000000  0       3254544.330       5618445.797       2757041.481
10 0 59687  37170.000000  0       3339438.736       5666566.320       2550651.861
10 0 59687  37200.000000  0       3421132.907       5708557.345       2341648.227
10 0 59687  37230.000000  0       3499517.169       5744390.912       2130244.990
10 0 59687  37260.000000  0       3574485.165       5774045.871       1916659.005
10 0 59687  37290.000000  0       3645933.990       5797507.893       1701109.349
10 0 59687  37320.000000  0       3713764.334       5814769.469       1483817.077
10 0 59687  37350.000000  0       3777880.607       5825829.908       1265004.999
10 0 59687  37380.000000  0       3838191.076       5830695.313       1044897.429
10 0 59687  37410.000000  0       3894607.982       5829378.556        823719.952
10 0 59687  37440.000000  0       3947047.666       5821899.241        601699.182
10 0 59687  37470.000000  0       3995430.681       5808283.663        379062.520
10 0 59687  37500.000000  0       4039681.894       5788564.752        156037.916
10 0 59687  37530.000000  0       4079730.600       5762782.022        -67146.373
10 0 59687  37560.000000  0       4115510.610       5730981.501       -290262.021
10 0 59687  37590.000000  0       4146960.352       5693215.661       -513080.878
10 0 59687  37620.000000  0       4174022.955       5649543.339       -735375.207
10 0 59687  37650.000000  0       4196646.334       5600029.646       -956917.925
10 0 59687  37680.000000  0       4214783.268       5544745.877      -1177482.845
10 0 59687  37710.000000  0       4228391.467       5483769.401      -1396844.907
10 0 59687  37740.000000  0       4237433.638       5417183.558      -1614780.422
10 0 59687  37770.000000  0       4241877.540       5345077.540      -1831067.295
10 0 59687  37800.000000  0       4241696.042       5267546.271      -2045485.264
10 0 59687  37830.000000  0       4236867.163       5184690.279      -2257816.121
10 0 59687  37860.000000  0       4227374.115       5096615.559      -2467843.947
10 0 59687  37890.000000  0       4213205.335       5003433.435      -2675355.324
10 0 59687  37920.000000  0       4194354.510       4905260.414      -2880139.563
10 0 59687  37950.000000  0       4170820.599       4802218.030      -3081988.910
10 0 59687  37980.000000  0       4142607.846       4694432.690      -3280698.762
10 0 59687  38010.000000  0       4109725.788       4582035.510      -3476067.868
10 0 59687  38040.000000  0       4072189.255       4465162.153      -3667898.530
10 0 59687  38070.000000  0       4030018.370       4343952.659      -3855996.798
10 0 59687  38100.000000  0       3983238.541       4218551.270      -4040172.661
10 0 59687  38130.000000  0       3931880.440       4089106.256      -4220240.241
10 0 59687  38160.000000  0       3875979.987       3955769.734      -4396017.967
10 0 59687  38190.000000  0       3815578.321       3818697.482      -4567328.762
10 0 59687  38220.000000  0       3750721.763       3678048.751      -4734000.206
10 0 59687  38250.000000  0       3681461.776       3533986.076      -4895864.707
10 0 59687  38280.000000  0       3607854.923       3386675.084      -5052759.659
10 0 59687  38310.000000  0       3529962.811       3236284.299      -5204527.596
10 0 59687  38340.000000  0       3447852.036       3082984.945      -5351016.339
10 0 59687  38370.000000  0       3361594.121       2926950.750      -5492079.141
10 0 59687  38400.000000  0       3271265.446       2768357.743      -5627574.820
10 0 59687  38430.000000  0       3176947.182       2607384.060      -5757367.888
10 0 59687  38460.000000  0       3078725.211       2444209.739      -5881328.681
10 0 59687  38490.000000  0       2976690.043       2279016.517      -5999333.476
10 0 59687  38520.000000  0       2870936.723       2111987.627      -6111264.602
10 0 59687  38550.000000  0       2761564.744       1943307.596      -6217010.542
10 0 59687  38580.000000  0       2648677.948       1773162.042      -6316466.031
10 0 59687  38610.000000  0       2532384.427       1601737.476      -6409532.153
10 0 59687  38640.000000  0       2412796.412       1429221.095      -6496116.422
10 0 59687  38670.000000  0       2290030.172       1255800.584      -6576132.865
10 0 59687  38700.000000  0       2164205.896       1081663.917      -6649502.097
10 0 59687  38730.000000  0       2035447.576        906999.155      -6716151.385
10 0 59687  38760.000000  0       1903882.890        731994.254      -6776014.718
10 0 59687  38790.000000  0       1769643.075        556836.864      -6829032.863
10 0 59687  38820.000000  0       1632862.797        381714.136      -6875153.418
10 0 59687  38850.000000  0       1493680.014        206812.521      -6914330.863
10 0 59687  38880.000000  0       1352235.840         32317.580      -6946526.591
10 0 59687  38910.000000  0       1208674.397       -141586.209      -6971708.941
10 0 59687  38940.000000  0       1063142.678       -314715.642      -6989853.220
10 0 59687  38970.000000  0        915790.397       -486888.974      -7000941.722
10 0 59687  39000.000000  0        766769.841       -657926.098      -7004963.740
10 0 59687  39030.000000  0        616235.715       -827648.735      -7001915.575
10 0 59687  39060.000000  0        464344.993       -995880.605      -6991800.537
10 0 59687  39090.000000  0        311256.752      -1162447.607      -6974628.940
10 0 59687  39120.000000  0        157132.017      -1327177.989      -6950418.091
10 0 59687  39150.000000  0          2133.599      -1489902.521      -6919192.278
10 0 59687  39180.000000  0       -153574.076      -1650454.662      -6880982.755
10 0 59687  39210.000000  0       -309825.137      -1808670.727      -6835827.708
10 0 59687  39240.000000  0       -466452.436      -1964390.054      -6783772.224
10 0 59687  39270.000000  0       -623287.726      -2117455.158      -6724868.252
10 0 59687  39300.000000  0       -780161.833      -2267711.895      -6659174.552
10 0 59687  39330.000000  0       -936904.835      -2415009.609      -6586756.645
10 0 59687  39360.000000  0      -1093346.240      -2559201.281      -6507686.750
10 0 59687  39390.000000  0      -1249315.162      -2700143.672      -6422043.720
10 0 59687  39420.000000  0      -1404640.503      -2837697.465      -6329912.978
10 0 59687  39450.000000  0      -1559151.140      -2971727.397      -6231386.433
10 0 59687  39480.000000  0      -1712676.102      -3102102.399      -6126562.408
10 0 59687  39510.000000  0      -1865044.758      -3228695.716      -6015545.546
10 0 59687  39540.000000  0      -2016087.001      -3351385.040      -5898446.721
10 0 59687  39570.000000  0      -2165633.438      -3470052.624      -5775382.938
99
